{
  "type": "FeatureCollection",
  "features": [
    {
      "type": "Feature",
      "properties": {
        "norad_id": 66906,
        "name": "1998-067XS",
        "group": "last-30-days",
        "lat": 51.29682636898653,
        "lon": -166.9797496455077,
        "alt_km": 408.32939084609916,
        "timestamp": "2025-12-22T09:53:36.145858+00:00",
        "meta_object_name": "1998-067XS",
        "meta_object_id": "1998-067XS",
        "meta_epoch": "2025-12-21T16:28:28.030656",
        "meta_mean_motion": 15.51020739,
        "meta_eccentricity": 0.0002929,
        "meta_inclination": 51.6318,
        "meta_ra_of_asc_node": 98.0337,
        "meta_arg_of_pericenter": 244.8837,
        "meta_mean_anomaly": 115.1848,
        "meta_ephemeris_type": 0,
        "meta_classification_type": "U",
        "meta_norad_cat_id": 66906,
        "meta_element_set_no": 999,
        "meta_rev_at_epoch": 300,
        "meta_bstar": 0.0004307,
        "meta_mean_motion_dot": 0.00025109,
        "meta_mean_motion_ddot": 0,
        "tle_line1": "1 66906U 98067XS  25355.68643554  .00025109  00000+0  43070-3 0  9991",
        "tle_line2": "2 66906  51.6318  98.0337 0002929 244.8837 115.1848 15.51020739  3005"
      },
      "geometry": {
        "type": "Point",
        "coordinates": [
          -166.9797496455077,
          51.29682636898653
        ]
      }
    },
    {
      "type": "Feature",
      "properties": {
        "norad_id": 66907,
        "name": "1998-067XT",
        "group": "last-30-days",
        "lat": 20.85750142467911,
        "lon": -103.2599034707187,
        "alt_km": 408.5540105332784,
        "timestamp": "2025-12-22T09:53:36.145868+00:00",
        "meta_object_name": "1998-067XT",
        "meta_object_id": "1998-067XT",
        "meta_epoch": "2025-12-21T16:14:38.830848",
        "meta_mean_motion": 15.52487606,
        "meta_eccentricity": 0.0003834,
        "meta_inclination": 51.6315,
        "meta_ra_of_asc_node": 97.969,
        "meta_arg_of_pericenter": 280.3147,
        "meta_mean_anomaly": 79.741,
        "meta_ephemeris_type": 0,
        "meta_classification_type": "U",
        "meta_norad_cat_id": 66907,
        "meta_element_set_no": 999,
        "meta_rev_at_epoch": 300,
        "meta_bstar": 0.00094407,
        "meta_mean_motion_dot": 0.00058863,
        "meta_mean_motion_ddot": 0,
        "tle_line1": "1 66907U 98067XT  25355.67683832  .00058863  00000+0  94407-3 0  9997",
        "tle_line2": "2 66907  51.6315  97.9690 0003834 280.3147  79.7410 15.52487606  3009"
      },
      "geometry": {
        "type": "Point",
        "coordinates": [
          -103.2599034707187,
          20.85750142467911
        ]
      }
    },
    {
      "type": "Feature",
      "properties": {
        "norad_id": 66908,
        "name": "1998-067XU",
        "group": "last-30-days",
        "lat": 17.02759083670887,
        "lon": -99.74441513052152,
        "alt_km": 408.7181192437847,
        "timestamp": "2025-12-22T09:53:36.145878+00:00",
        "meta_object_name": "1998-067XU",
        "meta_object_id": "1998-067XU",
        "meta_epoch": "2025-12-21T00:46:29.963136",
        "meta_mean_motion": 15.52510982,
        "meta_eccentricity": 0.00039042,
        "meta_inclination": 51.6311,
        "meta_ra_of_asc_node": 101.1653,
        "meta_arg_of_pericenter": 276.2494,
        "meta_mean_anomaly": 83.8051,
        "meta_ephemeris_type": 0,
        "meta_classification_type": "U",
        "meta_norad_cat_id": 66908,
        "meta_element_set_no": 999,
        "meta_rev_at_epoch": 290,
        "meta_bstar": 0.00080289362,
        "meta_mean_motion_dot": 0.00049977,
        "meta_mean_motion_ddot": 0,
        "tle_line1": "1 66908U 98067XU  25355.03229124  .00049977  00000+0  80289-3 0  9997",
        "tle_line2": "2 66908  51.6311 101.1653 0003904 276.2494  83.8051 15.52510982  2909"
      },
      "geometry": {
        "type": "Point",
        "coordinates": [
          -99.74441513052152,
          17.02759083670887
        ]
      }
    },
    {
      "type": "Feature",
      "properties": {
        "norad_id": 66909,
        "name": "SILVERSAT",
        "group": "last-30-days",
        "lat": 11.668408380416668,
        "lon": -95.13210066144586,
        "alt_km": 408.8278526060694,
        "timestamp": "2025-12-22T09:53:36.145888+00:00",
        "meta_object_name": "SILVERSAT",
        "meta_object_id": "1998-067XV",
        "meta_epoch": "2025-12-21T16:11:43.946016",
        "meta_mean_motion": 15.52760734,
        "meta_eccentricity": 0.0003783,
        "meta_inclination": 51.6311,
        "meta_ra_of_asc_node": 97.9558,
        "meta_arg_of_pericenter": 283.7129,
        "meta_mean_anomaly": 76.344,
        "meta_ephemeris_type": 0,
        "meta_classification_type": "U",
        "meta_norad_cat_id": 66909,
        "meta_element_set_no": 999,
        "meta_rev_at_epoch": 300,
        "meta_bstar": 0.0010102,
        "meta_mean_motion_dot": 0.00063686,
        "meta_mean_motion_ddot": 0,
        "tle_line1": "1 66909U 98067XV  25355.67481419  .00063686  00000+0  10102-2 0  9994",
        "tle_line2": "2 66909  51.6311  97.9558 0003783 283.7129  76.3440 15.52760734  3002"
      },
      "geometry": {
        "type": "Point",
        "coordinates": [
          -95.13210066144586,
          11.668408380416668
        ]
      }
    },
    {
      "type": "Feature",
      "properties": {
        "norad_id": 66910,
        "name": "1998-067XW",
        "group": "last-30-days",
        "lat": 3.98631715906191,
        "lon": -88.90107405946965,
        "alt_km": 408.4028206601506,
        "timestamp": "2025-12-22T09:53:36.145898+00:00",
        "meta_object_name": "1998-067XW",
        "meta_object_id": "1998-067XW",
        "meta_epoch": "2025-12-21T16:09:10.414944",
        "meta_mean_motion": 15.52740161,
        "meta_eccentricity": 0.0004064,
        "meta_inclination": 51.6307,
        "meta_ra_of_asc_node": 97.9437,
        "meta_arg_of_pericenter": 256.0944,
        "meta_mean_anomaly": 103.9594,
        "meta_ephemeris_type": 0,
        "meta_classification_type": "U",
        "meta_norad_cat_id": 66910,
        "meta_element_set_no": 999,
        "meta_rev_at_epoch": 300,
        "meta_bstar": 0.0009079,
        "meta_mean_motion_dot": 0.000571,
        "meta_mean_motion_ddot": 0,
        "tle_line1": "1 66910U 98067XW  25355.67303721  .00057100  00000+0  90790-3 0  9991",
        "tle_line2": "2 66910  51.6307  97.9437 0004064 256.0944 103.9594 15.52740161  3005"
      },
      "geometry": {
        "type": "Point",
        "coordinates": [
          -88.90107405946965,
          3.98631715906191
        ]
      }
    },
    {
      "type": "Feature",
      "properties": {
        "norad_id": 66911,
        "name": "1998-067XX",
        "group": "last-30-days",
        "lat": -9.076049062332254,
        "lon": -78.50019462595087,
        "alt_km": 408.2608703771066,
        "timestamp": "2025-12-22T09:53:36.145924+00:00",
        "meta_object_name": "1998-067XX",
        "meta_object_id": "1998-067XX",
        "meta_epoch": "2025-12-21T12:59:52.344384",
        "meta_mean_motion": 15.53156659,
        "meta_eccentricity": 0.0003822,
        "meta_inclination": 51.6308,
        "meta_ra_of_asc_node": 98.5657,
        "meta_arg_of_pericenter": 260.7512,
        "meta_mean_anomaly": 99.3046,
        "meta_ephemeris_type": 0,
        "meta_classification_type": "U",
        "meta_norad_cat_id": 66911,
        "meta_element_set_no": 999,
        "meta_rev_at_epoch": 297,
        "meta_bstar": 0.00097482,
        "meta_mean_motion_dot": 0.00062319,
        "meta_mean_motion_ddot": 0,
        "tle_line1": "1 66911U 98067XX  25355.54157806  .00062319  00000+0  97482-3 0  9992",
        "tle_line2": "2 66911  51.6308  98.5657 0003822 260.7512  99.3046 15.53156659  2971"
      },
      "geometry": {
        "type": "Point",
        "coordinates": [
          -78.50019462595087,
          -9.076049062332254
        ]
      }
    },
    {
      "type": "Feature",
      "properties": {
        "norad_id": 66912,
        "name": "1998-067XY",
        "group": "last-30-days",
        "lat": 35.43667320182718,
        "lon": -119.96600391271194,
        "alt_km": 408.32224091555963,
        "timestamp": "2025-12-22T09:53:36.145936+00:00",
        "meta_object_name": "1998-067XY",
        "meta_object_id": "1998-067XY",
        "meta_epoch": "2025-12-21T11:41:25.287072",
        "meta_mean_motion": 15.51934859,
        "meta_eccentricity": 0.0004003,
        "meta_inclination": 51.6317,
        "meta_ra_of_asc_node": 98.9521,
        "meta_arg_of_pericenter": 271.7448,
        "meta_mean_anomaly": 88.3083,
        "meta_ephemeris_type": 0,
        "meta_classification_type": "U",
        "meta_norad_cat_id": 66912,
        "meta_element_set_no": 999,
        "meta_rev_at_epoch": 296,
        "meta_bstar": 0.00071547257,
        "meta_mean_motion_dot": 0.0004353,
        "meta_mean_motion_ddot": 0,
        "tle_line1": "1 66912U 98067XY  25355.48709823  .00043530  00000+0  71547-3 0  9996",
        "tle_line2": "2 66912  51.6317  98.9521 0004003 271.7448  88.3083 15.51934859  2960"
      },
      "geometry": {
        "type": "Point",
        "coordinates": [
          -119.96600391271194,
          35.43667320182718
        ]
      }
    }
  ]
}